NORAD_CAT_ID,OBJECT_NAME,OBJECT_TYPE,EPOCH,MEAN_MOTION,ECCENTRICITY,INCLINATION,RA_OF_ASC_NODE,ARG_OF_PERICENTER,MEAN_ANOMALY,BSTAR,MEAN_MOTION_DOT,MEAN_MOTION_DDOT,TLE_LINE0,TLE_LINE1,TLE_LINE2,SEMIMAJOR_AXIS,PERIOD,APOGEE,PERIGEE,DECAYED
53558.0,STARLINK-4494,PAYLOAD,2023-12-04 21:43:29,15.08838355,0.000147,53.2159,165.9335,105.7829,254.3325,-2.0599e-05,-6.16e-06,0.0,0 STARLINK-4494,1 53558U 22101AH  23338.90520771 -.00000616  00000-0 -20599-4 0  9996,2 53558  53.2159 165.9335 0001470 105.7829 254.3325 15.08838355 72378,6917.885,95.438,540.767,538.733,0.0
53558.0,STARLINK-4494,PAYLOAD,2023-12-04 23:18:53,15.08835218,0.0001422,53.2153,165.6357,99.5713,260.544,2.1298e-05,5.1e-07,0.0,0 STARLINK-4494,1 53558U 22101AH  23338.97144880  .00000051  00000-0  21298-4 0  9994,2 53558  53.2153 165.6357 0001422  99.5713 260.5440 15.08835218 71722,6917.895,95.438,540.744,538.776,0.0
53558.0,STARLINK-4494,PAYLOAD,2023-12-05 21:34:17,15.08836909,0.0001256,53.2155,161.473,88.8482,271.2654,0.00013496,1.86e-05,0.0,0 STARLINK-4494,1 53558U 22101AH  23339.89880792  .00001860  00000-0  13496-3 0  9994,2 53558  53.2155 161.4730 0001256  88.8482 271.2654 15.08836909 72525,6917.89,95.438,540.624,538.886,0.0
53558.0,STARLINK-4494,PAYLOAD,2023-12-06 11:52:44,15.08844364,0.0001535,53.2165,158.7959,101.3665,258.75,8.4452e-05,1.056e-05,0.0,0 STARLINK-4494,1 53558U 22101AH  23340.49496233  .00001056  00000-0  84452-4 0  9993,2 53558  53.2165 158.7959 0001535 101.3665 258.7500 15.08844364 71952,6917.867,95.437,540.794,538.67,0.0
53558.0,STARLINK-4494,PAYLOAD,2023-12-07 21:15:50,15.08840602,0.0001403,53.2159,152.5514,96.4787,263.6365,0.00011887,1.604e-05,0.0,0 STARLINK-4494,1 53558U 22101AH  23341.88600573  .00001604  00000-0  11887-3 0  9991,2 53558  53.2159 152.5514 0001403  96.4787 263.6365 15.08840602 72166,6917.879,95.438,540.714,538.773,0.0
53558.0,STARLINK-4494,PAYLOAD,2023-12-08 11:34:19,15.08837842,0.0001348,53.2156,149.8752,92.8882,267.2265,1.6908e-05,-1.9e-07,0.0,0 STARLINK-4494,1 53558U 22101AH  23342.48216584 -.00000019  00000-0  16908-4 0  9993,2 53558  53.2156 149.8752 0001348  92.8882 267.2265 15.08837842 72914,6917.887,95.438,540.685,538.819,0.0
53558.0,STARLINK-4494,PAYLOAD,2023-12-09 11:25:05,15.0884008,0.0001288,53.2154,145.4142,89.2248,270.8892,2.4328e-05,9.9e-07,0.0,0 STARLINK-4494,1 53558U 22101AH  23343.47576364  .00000099  00000-0  24328-4 0  9990,2 53558  53.2154 145.4142 0001288  89.2248 270.8892 15.08840080 72404,6917.88,95.438,540.636,538.854,0.0
53558.0,STARLINK-4494,PAYLOAD,2023-12-10 14:26:39,15.08838238,0.0001369,53.2165,140.3596,102.9271,257.1874,-1.0772e-05,-4.59e-06,0.0,0 STARLINK-4494,1 53558U 22101AH  23344.60184432 -.00000459  00000-0 -10772-4 0  9997,2 53558  53.2165 140.3596 0001369 102.9271 257.1874 15.08838238 73234,6917.886,95.438,540.698,538.804,0.0
53558.0,STARLINK-4494,PAYLOAD,2023-12-10 17:37:25,15.08836512,0.000131,53.2173,139.7659,99.2843,260.8298,2.2217e-05,6.6e-07,0.0,0 STARLINK-4494,1 53558U 22101AH  23344.73432564  .00000066  00000-0  22217-4 0  9992,2 53558  53.2173 139.7659 0001310  99.2843 260.8298 15.08836512 72596,6917.891,95.438,540.662,538.85,0.0
53558.0,STARLINK-4494,PAYLOAD,2023-12-11 14:17:26,15.08837424,0.0001315,53.2175,135.9034,103.3514,256.7625,4.4944e-05,4.27e-06,0.0,0 STARLINK-4494,1 53558U 22101AH  23345.59544575  .00000427  00000-0  44944-4 0  9995,2 53558  53.2175 135.9034 0001315 103.3514 256.7625 15.08837424 73389,6917.888,95.438,540.663,538.844,0.0
53558.0,STARLINK-4494,PAYLOAD,2023-12-11 15:52:49,15.0883797,0.0001298,53.2171,135.605,102.3817,257.732,4.8046e-05,4.77e-06,0.0,0 STARLINK-4494,1 53558U 22101AH  23345.66168533  .00000477  00000-0  48046-4 0  9991,2 53558  53.2171 135.6050 0001298 102.3817 257.7320 15.08837970 73395,6917.887,95.438,540.65,538.854,0.0
53558.0,STARLINK-4494,PAYLOAD,2023-12-12 14:08:13,15.08838695,0.0001296,53.2173,131.4432,104.0013,256.1123,4.9689e-05,5.03e-06,0.0,0 STARLINK-4494,1 53558U 22101AH  23346.58904590  .00000503  00000-0  49689-4 0  9998,2 53558  53.2173 131.4432 0001296 104.0013 256.1123 15.08838695 73535,6917.884,95.438,540.646,538.853,0.0
53558.0,STARLINK-4494,PAYLOAD,2023-12-12 17:18:59,15.08840763,0.0001247,53.2168,130.8453,95.2934,264.8201,6.8826e-05,8.08e-06,0.0,0 STARLINK-4494,1 53558U 22101AH  23346.72152413  .00000808  00000-0  68826-4 0  9995,2 53558  53.2168 130.8453 0001247  95.2934 264.8201 15.08840763 72894,6917.878,95.438,540.606,538.88,0.0
53558.0,STARLINK-4494,PAYLOAD,2023-12-13 13:59:00,15.08840466,0.0001251,53.2167,126.9779,88.6265,271.4871,4.3544e-05,4.05e-06,0.0,0 STARLINK-4494,1 53558U 22101AH  23347.58264482  .00000405  00000-0  43544-4 0  9993,2 53558  53.2167 126.9779 0001251  88.6265 271.4871 15.08840466 73683,6917.879,95.438,540.609,538.879,0.0
53558.0,STARLINK-4494,PAYLOAD,2023-12-13 17:09:46,15.08843411,0.0001289,53.2171,126.3857,88.7402,271.3738,6.7109e-05,7.8e-06,0.0,0 STARLINK-4494,1 53558U 22101AH  23347.71512252  .00000780  00000-0  67109-4 0  9998,2 53558  53.2171 126.3857 0001289  88.7402 271.3738 15.08843411 73701,6917.87,95.437,540.627,538.843,0.0
53558.0,STARLINK-4494,PAYLOAD,2023-12-14 13:49:47,15.08838842,0.0001651,53.2182,122.5188,69.7853,290.3316,5.4894e-06,-2.01e-06,0.0,0 STARLINK-4494,1 53558U 22101AH  23348.57624905 -.00000201  00000-0  54894-5 0  9999,2 53558  53.2182 122.5188 0001651  69.7853 290.3316 15.08838842 73839,6917.884,95.438,540.891,538.607,0.0
53558.0,STARLINK-4494,PAYLOAD,2023-12-14 15:25:11,15.08839545,0.000166,53.2181,122.2229,69.349,290.768,1.1919e-05,-9.8e-07,0.0,0 STARLINK-4494,1 53558U 22101AH  23348.64248858 -.00000098  00000-0  11919-4 0  9990,2 53558  53.2181 122.2229 0001660  69.3490 290.7680 15.08839545 73181,6917.882,95.438,540.895,538.598,0.0
53558.0,STARLINK-4494,PAYLOAD,2023-12-15 12:05:12,15.08818665,0.00014,53.2169,118.3623,107.6406,252.4739,0.00015733,2.215e-05,0.0,0 STARLINK-4494,1 53558U 22101AH  23349.50361441  .00002215  00000-0  15733-3 0  9999,2 53558  53.2169 118.3623 0001400 107.6406 252.4739 15.08818665 73311,6917.946,95.439,540.779,538.842,0.0
53558.0,STARLINK-4494,PAYLOAD,2023-12-15 13:40:35,15.08818874,0.0001401,53.217,118.0641,106.5488,253.5658,0.00016171,2.285e-05,0.0,0 STARLINK-4494,1 53558U 22101AH  23349.56985490  .00002285  00000-0  16171-3 0  9995,2 53558  53.2170 118.0641 0001401 106.5488 253.5658 15.08818874 73986,6917.945,95.439,540.779,538.841,0.0
53558.0,STARLINK-4494,PAYLOAD,2023-12-15 15:15:58,15.08837772,0.0001267,53.2168,117.7672,87.6275,272.4862,-6.4033e-05,-1.307e-05,0.0,0 STARLINK-4494,1 53558U 22101AH  23349.63609339 -.00001307  00000-0 -64033-4 0  9995,2 53558  53.2168 117.7672 0001267  87.6275 272.4862 15.08837772 73330,6917.887,95.438,540.629,538.876,0.0
53558.0,STARLINK-4494,PAYLOAD,2023-12-16 11:55:58,15.08847516,0.0001276,53.2176,113.8954,109.6719,250.4411,-1.3269e-05,-4.99e-06,0.0,0 STARLINK-4494,1 53558U 22101AH  23350.49720593 -.00000499  00000-0 -13269-4 0  9993,2 53558  53.2176 113.8954 0001276 109.6719 250.4411 15.08847516 73464,6917.857,95.437,540.605,538.84,0.0
53558.0,STARLINK-4494,PAYLOAD,2023-12-16 13:31:21,15.08846344,0.0001257,53.2173,113.602,91.9127,268.2009,4.2365e-05,3.87e-06,0.0,0 STARLINK-4494,1 53558U 22101AH  23350.56344576  .00000387  00000-0  42365-4 0  9997,2 53558  53.2173 113.6020 0001257  91.9127 268.2009 15.08846344 74131,6917.861,95.437,540.596,538.856,0.0
53558.0,STARLINK-4494,PAYLOAD,2023-12-16 15:06:44,15.08843655,0.0001456,53.2177,113.3043,105.0863,255.029,0.00012351,1.678e-05,0.0,0 STARLINK-4494,1 53558U 22101AH  23350.62968389  .00001678  00000-0  12351-3 0  9993,2 53558  53.2177 113.3043 0001456 105.0863 255.0290 15.08843655 74141,6917.869,95.437,540.741,538.727,0.0
53558.0,STARLINK-4494,PAYLOAD,2023-12-17 11:46:46,15.08834723,0.0001648,53.2187,109.435,117.0783,243.0377,3.2697e-05,2.32e-06,0.0,0 STARLINK-4494,1 53558U 22101AH  23351.49081333  .00000232  00000-0  32697-4 0  9995,2 53558  53.2187 109.4350 0001648 117.0783 243.0377 15.08834723 73616,6917.897,95.438,540.902,538.621,0.0
53558.0,STARLINK-4494,PAYLOAD,2023-12-17 13:22:09,15.08835312,0.0001631,53.2187,109.1374,115.9574,244.1587,3.8702e-05,3.28e-06,0.0,0 STARLINK-4494,1 53558U 22101AH  23351.55705305  .00000328  00000-0  38702-4 0  9993,2 53558  53.2187 109.1374 0001631 115.9574 244.1587 15.08835312 74280,6917.895,95.438,540.888,538.631,0.0
53558.0,STARLINK-4494,PAYLOAD,2023-12-18 11:37:32,15.08846982,0.0001612,53.2185,104.9736,115.234,244.882,3.6113e-05,2.87e-06,0.0,0 STARLINK-4494,1 53558U 22101AH  23352.48440537  .00000287  00000-0  36113-4 0  9997,2 53558  53.2185 104.9736 0001612 115.2340 244.8820 15.08846982 73760,6917.859,95.437,540.839,538.609,0.0
53558.0,STARLINK-4494,PAYLOAD,2023-12-18 14:48:18,15.088337,0.0001665,53.2186,104.3796,111.0208,249.0962,0.00029334,4.383e-05,0.0,0 STARLINK-4494,1 53558U 22101AH  23352.61688500  .00004383  00000-0  29334-3 0  9993,2 53558  53.2186 104.3796 0001665 111.0208 249.0962 15.08833700 74440,6917.9,95.438,540.916,538.613,0.0
53558.0,STARLINK-4494,PAYLOAD,2023-12-19 11:28:20,15.08837915,0.0001543,53.2186,100.5139,109.3175,250.7984,4.2103e-06,-2.21e-06,0.0,0 STARLINK-4494,1 53558U 22101AH  23353.47801290 -.00000221  00000-0  42103-5 0  9990,2 53558  53.2186 100.5139 0001543 109.3175 250.7984 15.08837915 73913,6917.887,95.438,540.819,538.684,0.0
53558.0,STARLINK-4494,PAYLOAD,2023-12-19 14:39:06,15.08836957,0.0001295,53.2181,99.9182,88.7006,271.4134,-1.5049e-06,-3.12e-06,0.0,0 STARLINK-4494,1 53558U 22101AH  23353.61049449 -.00000312  00000-0 -15049-5 0  9997,2 53558  53.2181  99.9182 0001295  88.7006 271.4134 15.08836957 74591,6917.89,95.438,540.651,538.859,0.0
53558.0,STARLINK-4494,PAYLOAD,2023-12-20 12:54:30,15.0884152,0.0001288,53.218,95.7559,75.6591,284.4544,-8.0047e-05,-1.562e-05,0.0,0 STARLINK-4494,1 53558U 22101AH  23354.53785766 -.00001562  00000-0 -80047-4 0  9995,2 53558  53.2180  95.7559 0001288  75.6591 284.4544 15.08841520 74735,6917.876,95.437,540.632,538.85,0.0
